{
  "type": "FeatureCollection",
  "features": [
    {
      "type": "Feature",
      "properties": {
        "norad_id": 64903,
        "name": "CO3D 1",
        "group": "resource",
        "lat": 71.88989436943577,
        "lon": -84.09614085445678,
        "alt_km": 497.7359322506127,
        "timestamp": "2025-12-22T05:49:03.140401+00:00",
        "meta_object_name": "CO3D 1",
        "meta_object_id": "2025-156E",
        "meta_epoch": "2025-12-21T19:52:20.228160",
        "meta_mean_motion": 15.20211762,
        "meta_eccentricity": 8.88e-05,
        "meta_inclination": 97.4341,
        "meta_ra_of_asc_node": 71.964,
        "meta_arg_of_pericenter": 81.0883,
        "meta_mean_anomaly": 279.0453,
        "meta_ephemeris_type": 0,
        "meta_classification_type": "U",
        "meta_norad_cat_id": 64903,
        "meta_element_set_no": 999,
        "meta_rev_at_epoch": 2258,
        "meta_bstar": 0.00024357,
        "meta_mean_motion_dot": 5.21e-05,
        "meta_mean_motion_ddot": 0,
        "tle_line1": "1 64903U 25156E   25355.82801190  .00005210  00000+0  24357-3 0  9991",
        "tle_line2": "2 64903  97.4341  71.9640 0000888  81.0883 279.0453 15.20211762 22585"
      },
      "geometry": {
        "type": "Point",
        "coordinates": [
          -84.09614085445678,
          71.88989436943577
        ]
      }
    },
    {
      "type": "Feature",
      "properties": {
        "norad_id": 66514,
        "name": "SENTINEL-6B",
        "group": "resource",
        "lat": 8.527345391650876,
        "lon": 146.50670926801143,
        "alt_km": 1337.703415860995,
        "timestamp": "2025-12-22T05:49:03.140412+00:00",
        "meta_object_name": "SENTINEL-6B",
        "meta_object_id": "2025-264A",
        "meta_epoch": "2025-12-12T06:01:21.427680",
        "meta_mean_motion": 12.81479575,
        "meta_eccentricity": 0.0007848,
        "meta_inclination": 66.0385,
        "meta_ra_of_asc_node": 163.4531,
        "meta_arg_of_pericenter": 270.1375,
        "meta_mean_anomaly": 89.8741,
        "meta_ephemeris_type": 0,
        "meta_classification_type": "U",
        "meta_norad_cat_id": 66514,
        "meta_element_set_no": 999,
        "meta_rev_at_epoch": 322,
        "meta_bstar": 0.00018195,
        "meta_mean_motion_dot": -1.9e-07,
        "meta_mean_motion_ddot": 0,
        "tle_line1": "1 66514U 25264A   25346.25094245 -.00000019  00000+0  18195-3 0  9999",
        "tle_line2": "2 66514  66.0385 163.4531 0007848 270.1375  89.8741 12.81479575  3220"
      },
      "geometry": {
        "type": "Point",
        "coordinates": [
          146.50670926801143,
          8.527345391650876
        ]
      }
    }
  ]
}